{
"type": "FeatureCollection",
"name": "sample_fields",
"crs": { "type": "name", "properties": { "name": "urn:ogc:def:crs:OGC:1.3:CRS84" } },
"features": [
{ "type": "Feature", "properties": { "id": 0, "crop_type": "fallow", "area_ha": 17.55, "yield_t_ha": 2.85, "history": [ "corn", "wheat", "soybean", "sunflower", "sunflower" ] }, "geometry": { "type": "Polygon", "coordinates": [ [ [ 59.999202219464983, 41.001894948689376 ], [ 60.009202219464981, 41.001894948689376 ], [ 60.009202219464981, 41.011894948689374 ], [ 59.999202219464983, 41.011894948689374 ], [ 59.999202219464983, 41.001894948689376 ] ] ] } },
{ "type": "Feature", "properties": { "id": 1, "crop_type": "corn", "area_ha": 17.74, "yield_t_ha": 1.89, "history": [ "wheat", "soybean", "corn", "fallow", "sunflower" ] }, "geometry": { "type": "Polygon", "coordinates": [ [ [ 60.016488601893407, 41.001369653253875 ], [ 60.026488601893405, 41.001369653253875 ], [ 60.026488601893405, 41.011369653253873 ], [ 60.016488601893407, 41.011369653253873 ], [ 60.016488601893407, 41.001369653253875 ] ] ] } },
{ "type": "Feature", "properties": { "id": 2, "crop_type": "corn", "area_ha": 8.54, "yield_t_ha": 2.75, "history": [ "wheat", "wheat", "corn", "wheat", "soybean" ] }, "geometry": { "type": "Polygon", "coordinates": [ [ [ 60.031050013154363, 40.999290290423218 ], [ 60.041050013154361, 40.999290290423218 ], [ 60.041050013154361, 41.009290290423216 ], [ 60.031050013154363, 41.009290290423216 ], [ 60.031050013154363, 40.999290290423218 ] ] ] } },
{ "type": "Feature", "properties": { "id": 3, "crop_type": "fallow", "area_ha": 6.74, "yield_t_ha": 1.17, "history": [ "soybean", "corn", "wheat", "sunflower", "fallow" ] }, "geometry": { "type": "Polygon", "coordinates": [ [ [ 59.998826783970216, 41.010664466481195 ], [ 60.008826783970214, 41.010664466481195 ], [ 60.008826783970214, 41.020664466481193 ], [ 59.998826783970216, 41.020664466481193 ], [ 59.998826783970216, 41.010664466481195 ] ] ] } },
{ "type": "Feature", "properties": { "id": 4, "crop_type": "wheat", "area_ha": 2.98, "yield_t_ha": 2.45, "history": [ "corn", "wheat", "soybean", "corn", "corn" ] }, "geometry": { "type": "Polygon", "coordinates": [ [ [ 60.015201396105589, 41.010667026637499 ], [ 60.025201396105587, 41.010667026637499 ], [ 60.025201396105587, 41.020667026637497 ], [ 60.015201396105589, 41.020667026637497 ], [ 60.015201396105589, 41.010667026637499 ] ] ] } },
{ "type": "Feature", "properties": { "id": 5, "crop_type": "wheat", "area_ha": 14.75, "yield_t_ha": 2.69, "history": [ "soybean", "soybean", "fallow", "sunflower", "wheat" ] }, "geometry": { "type": "Polygon", "coordinates": [ [ [ 60.031272655017254, 41.011098546413699 ], [ 60.041272655017252, 41.011098546413699 ], [ 60.041272655017252, 41.021098546413697 ], [ 60.031272655017254, 41.021098546413697 ], [ 60.031272655017254, 41.011098546413699 ] ] ] } },
{ "type": "Feature", "properties": { "id": 6, "crop_type": "fallow", "area_ha": 14.19, "yield_t_ha": 1.34, "history": [ "fallow", "wheat", "soybean", "soybean", "wheat" ] }, "geometry": { "type": "Polygon", "coordinates": [ [ [ 60.000564339148653, 41.022254946923105 ], [ 60.010564339148651, 41.022254946923105 ], [ 60.010564339148651, 41.032254946923103 ], [ 60.000564339148653, 41.032254946923103 ], [ 60.000564339148653, 41.022254946923105 ] ] ] } },
{ "type": "Feature", "properties": { "id": 7, "crop_type": "soybean", "area_ha": 6.44, "yield_t_ha": 1.31, "history": [ "sunflower", "corn", "wheat", "sunflower", "soybean" ] }, "geometry": { "type": "Polygon", "coordinates": [ [ [ 60.01605763425767, 41.025852025891588 ], [ 60.026057634257668, 41.025852025891588 ], [ 60.026057634257668, 41.035852025891586 ], [ 60.01605763425767, 41.035852025891586 ], [ 60.01605763425767, 41.025852025891588 ] ] ] } },
{ "type": "Feature", "properties": { "id": 8, "crop_type": "corn", "area_ha": 18.7, "yield_t_ha": 3.04, "history": [ "sunflower", "sunflower", "sunflower", "soybean", "sunflower" ] }, "geometry": { "type": "Polygon", "coordinates": [ [ [ 60.029976946859669, 41.024604186170322 ], [ 60.039976946859667, 41.024604186170322 ], [ 60.039976946859667, 41.03460418617032 ], [ 60.029976946859669, 41.03460418617032 ], [ 60.029976946859669, 41.024604186170322 ] ] ] } },
{ "type": "Feature", "properties": { "id": 9, "crop_type": "wheat", "area_ha": 14.21, "yield_t_ha": 1.11, "history": [ "soybean", "wheat", "wheat", "wheat", "wheat" ] }, "geometry": { "type": "Polygon", "coordinates": [ [ [ 60.000700387526777, 41.035226453837964 ], [ 60.010700387526775, 41.035226453837964 ], [ 60.010700387526775, 41.045226453837962 ], [ 60.000700387526777, 41.045226453837962 ], [ 60.000700387526777, 41.035226453837964 ] ] ] } },
{ "type": "Feature", "properties": { "id": 10, "crop_type": "soybean", "area_ha": 4.11, "yield_t_ha": 3.5, "history": [ "sunflower", "fallow", "sunflower", "sunflower", "corn" ] }, "geometry": { "type": "Polygon", "coordinates": [ [ [ 60.016163766740704, 41.036699116165423 ], [ 60.026163766740702, 41.036699116165423 ], [ 60.026163766740702, 41.046699116165421 ], [ 60.016163766740704, 41.046699116165421 ], [ 60.016163766740704, 41.036699116165423 ] ] ] } },
{ "type": "Feature", "properties": { "id": 11, "crop_type": "fallow", "area_ha": 14.42, "yield_t_ha": 4.79, "history": [ "sunflower", "wheat", "soybean", "soybean", "corn" ] }, "geometry": { "type": "Polygon", "coordinates": [ [ [ 60.028180896991699, 41.034173769936466 ], [ 60.038180896991697, 41.034173769936466 ], [ 60.038180896991697, 41.044173769936464 ], [ 60.028180896991699, 41.044173769936464 ], [ 60.028180896991699, 41.034173769936466 ] ] ] } }
]
}
